LEMUR-2-STARLIGHT       
1 66783U 25276DY  26196.73636343  .00003931  00000+0  32538-3 0  9990
2 66783  97.5237 266.3989 0014703  45.9551 314.2880 14.99359751 34479
LEMUR-2-TARTIFLETTE     
1 66784U 25276DZ  26196.73476972  .00003547  00000+0  29425-3 0  9995
2 66784  97.5233 266.4060 0013932  54.0986 306.1528 14.99344051 34479
LEMUR-2-VUKASIN         
1 66785U 25276EA  26196.43795814  .00002479  00000+0  20106-3 0  9992
2 66785  97.5225 266.4784 0003009  54.6236 305.5269 15.00547816 34384
LEMUR-2-HOTSPUR-TOM     
1 66786U 25276EB  26196.72920693  .00003070  00000+0  25595-3 0  9995
2 66786  97.5218 266.3745 0013771  45.5113 314.7233 14.99244890 34402
LEMUR-2-MYRA            
1 66787U 25276EC  26196.73658025  .00003488  00000+0  27979-3 0  9995
2 66787  97.5220 266.6868 0018677  52.7156 307.5768 15.00593508 34490
LEMUR-2 FIKRETDENGIZ    
1 67363U 26004A   26196.50386577  .00001825  00000+0  20206-3 0  9990
2 67363  97.8024 194.6315 0010174  55.0789 305.1382 14.88518624 27494
TWILIGHT-1 OBJECT B     
1 67364U 26004B   26196.81017972  .00000885  00000+0  10278-3 0  9998
2 67364  97.8075 194.9336 0009695  44.1707 316.0282 14.87794613 27541
LEMUR-2-MARIO-SOUSA     
1 67365U 26004C   26196.55089851  .00002589  00000+0  28272-3 0  9991
2 67365  97.7998 194.6728 0009829  56.1473 304.0678 14.88729739 27510
LEMUR-2-SONNENBLUME     
1 67367U 26004E   26196.41936634  .00001405  00000+0  15718-3 0  9995
2 67367  97.8001 194.5158 0009378  57.5797 302.6326 14.88453773 27490
LEMUR-2-WOBLER          
1 67368U 26004F   26196.87911696  .00002178  00000+0  23899-3 0  9994
2 67368  97.8049 195.1201 0009422  48.3637 311.8385 14.88700603 27562
LEMUR-2-GRAM-E-SUE      
1 67370U 26004H   26196.60242169  .00001273  00000+0  14251-3 0  9997
2 67370  97.7987 194.7126 0008576  59.8938 300.3128 14.88590755 27525
LEMUR-2-KATIE           
1 67387U 26004AA  26196.76036385  .00002563  00000+0  26980-3 0  9998
2 67387  97.8043 195.4216 0003470  32.8536 327.2897 14.90254887 27569
LEMUR-2-HCS-BAZUS       
1 67388U 26004AB  26196.82585922  .00001475  00000+0  15768-3 0  9995
2 67388  97.8039 195.4643 0002923  32.1049 328.0347 14.90263539 27577
