OBJECT_NAME,OBJECT_ID,EPOCH,MEAN_MOTION,ECCENTRICITY,INCLINATION,RA_OF_ASC_NODE,ARG_OF_PERICENTER,MEAN_ANOMALY,EPHEMERIS_TYPE,CLASSIFICATION_TYPE,NORAD_CAT_ID,ELEMENT_SET_NO,REV_AT_EPOCH,BSTAR,MEAN_MOTION_DOT,MEAN_MOTION_DDOT
LEMUR-2-STARLIGHT,2025-276DY,2026-07-15T17:40:21.800352,14.99359751,.0014703,97.5237,266.3989,45.9551,314.2880,0,U,66783,999,3447,.32538E-3,.3931E-4,0
LEMUR-2-TARTIFLETTE,2025-276DZ,2026-07-15T17:38:04.103808,14.99344051,.0013932,97.5233,266.4060,54.0986,306.1528,0,U,66784,999,3447,.29425E-3,.3547E-4,0
LEMUR-2-VUKASIN,2025-276EA,2026-07-15T10:30:39.583296,15.00547816,.00030097,97.5225,266.4784,54.6236,305.5269,0,U,66785,999,3438,.20106065E-3,.2479E-4,0
LEMUR-2-HOTSPUR-TOM,2025-276EB,2026-07-15T17:30:03.478752,14.99244890,.0013771,97.5218,266.3745,45.5113,314.7233,0,U,66786,999,3440,.25595E-3,.307E-4,0
LEMUR-2-MYRA,2025-276EC,2026-07-15T17:40:40.533600,15.00593508,.0018677,97.5220,266.6868,52.7156,307.5768,0,U,66787,999,3449,.27979E-3,.3488E-4,0
LEMUR-2 FIKRETDENGIZ,2026-004A,2026-07-15T12:05:34.002528,14.88518624,.00101747,97.8024,194.6315,55.0789,305.1382,0,U,67363,999,2749,.20206415E-3,.1825E-4,0
TWILIGHT-1 OBJECT B,2026-004B,2026-07-15T19:26:39.527808,14.87794613,.0009695,97.8075,194.9336,44.1707,316.0282,0,U,67364,999,2754,.10278E-3,.885E-5,0
LEMUR-2-MARIO-SOUSA,2026-004C,2026-07-15T13:13:17.631264,14.88729739,.0009829,97.7998,194.6728,56.1473,304.0678,0,U,67365,999,2751,.28272E-3,.2589E-4,0
LEMUR-2-SONNENBLUME,2026-004E,2026-07-15T10:03:53.251776,14.88453773,.00093787,97.8001,194.5158,57.5797,302.6326,0,U,67367,999,2749,.15718359E-3,.1405E-4,0
LEMUR-2-WOBLER,2026-004F,2026-07-15T21:05:55.705344,14.88700603,.0009422,97.8049,195.1201,48.3637,311.8385,0,U,67368,999,2756,.23899E-3,.2178E-4,0
LEMUR-2-GRAM-E-SUE,2026-004H,2026-07-15T14:27:29.234016,14.88590755,.0008576,97.7987,194.7126,59.8938,300.3128,0,U,67370,999,2752,.14251E-3,.1273E-4,0
LEMUR-2-KATIE,2026-004AA,2026-07-15T18:14:55.436640,14.90254887,.000347,97.8043,195.4216,32.8536,327.2897,0,U,67387,999,2756,.2698E-3,.2563E-4,0
LEMUR-2-HCS-BAZUS,2026-004AB,2026-07-15T19:49:14.236608,14.90263539,.0002923,97.8039,195.4643,32.1049,328.0347,0,U,67388,999,2757,.15768E-3,.1475E-4,0
